[
  {
    "name": "Blue Cow Yoga",
    "provider": "MBO",
    "studioid": 23194,
    "redirectPage":  "",
    "timezone": "Europe/London",
    "locale": 
    {
      "name": "Blue Cow Yoga",
      "url": "http://bluecowyoga.com/",
      "postcode": "EC"
    }
  },
  {
    "name": "More Yoga",
    "provider": "MBO",
    "studioid": 256292,
    "redirectPage":  "",
    "timezone": "Europe/London",
    "locales":
    {
      "MoreYoga Aldgate":
      {
        "name": "More Yoga Aldgate",
        "url": "https://www.moreyoga.co.uk/",
        "booking": "https://clients.mindbodyonline.com/classic/home?studioid=256292",
        "postcode": "E"
      },
      "MoreYoga Angel":
      {
        "name": "More Yoga Angel",
        "url": "https://www.moreyoga.co.uk/",
        "booking": "https://clients.mindbodyonline.com/classic/home?studioid=256292",
        "postcode": "N"
      },
      "MoreYoga Balham":
      {
        "name": "More Yoga Balham",
        "url": "https://www.moreyoga.co.uk/",
        "booking": "https://clients.mindbodyonline.com/classic/home?studioid=256292",
        "postcode": "SW"
      },
      "MoreYoga Bermondsey":
      {
        "name": "More Yoga Bermondsey",
        "url": "https://www.moreyoga.co.uk/",
        "booking": "https://clients.mindbodyonline.com/classic/home?studioid=256292",
        "postcode": "SE"
      },
      "MoreYoga Brixton":
      {
        "name": "More Yoga Brixton",
        "url": "https://www.moreyoga.co.uk/",
        "booking": "https://clients.mindbodyonline.com/classic/home?studioid=256292",
        "postcode": "SW"
      },
      "MoreYoga Caledonian Road":
      {
        "name": "More Yoga Caledonian Road",
        "url": "https://www.moreyoga.co.uk/",
        "booking": "https://clients.mindbodyonline.com/classic/home?studioid=256292",
        "postcode": "N"
      },
      "MoreYoga Camden":
      {
        "name": "More Yoga Camden",
        "url": "https://www.moreyoga.co.uk/",
        "booking": "https://clients.mindbodyonline.com/classic/home?studioid=256292",
        "postcode": "NW"
      },
      "MoreYoga Clapham Junction":
      {
        "name": "More Yoga Clapham Junction",
        "url": "https://www.moreyoga.co.uk/",
        "booking": "https://clients.mindbodyonline.com/classic/home?studioid=256292",
        "postcode": "SW"
      },
      "MoreYoga East Greenwich":
      {
        "name": "More Yoga East Greenwich",
        "url": "https://www.moreyoga.co.uk/",
        "booking": "https://clients.mindbodyonline.com/classic/home?studioid=256292",
        "postcode": "SE"
      },
      "MoreYoga Forest Hill":
      {
        "name": "More Yoga Forest Hill",
        "url": "https://www.moreyoga.co.uk/",
        "booking": "https://clients.mindbodyonline.com/classic/home?studioid=256292",
        "postcode": "SE"
      },
      "MoreYoga Finsbury Park":
      {
        "name": "More Yoga Finsbury Park",
        "url": "https://www.moreyoga.co.uk/",
        "booking": "https://clients.mindbodyonline.com/classic/home?studioid=256292",
        "postcode": "N"
      },
      "MoreYoga Greenwich Creekside":
      {
        "name": "More Yoga Greenwich Creekside",
        "url": "https://www.moreyoga.co.uk/",
        "booking": "https://clients.mindbodyonline.com/classic/home?studioid=256292",
        "postcode": "SE"
      },
      "MoreYoga Hackney":
      {
        "name": "More Yoga Hackney",
        "url": "https://www.moreyoga.co.uk/",
        "booking": "https://clients.mindbodyonline.com/classic/home?studioid=256292",
        "postcode": "E"
      },
      "MoreYoga Haggerston":
      {
        "name": "More Yoga Haggerston",
        "url": "https://www.moreyoga.co.uk/",
        "booking": "https://clients.mindbodyonline.com/classic/home?studioid=256292",
        "postcode": "E"
      },
      "MoreYoga Harringay":
      {
        "name": "More Yoga Harringay",
        "url": "https://www.moreyoga.co.uk/",
        "booking": "https://clients.mindbodyonline.com/classic/home?studioid=256292",
        "postcode": "N"
      },
      "MoreYoga Latimer Road":
      {
        "name": "More Yoga Latimer Road",
        "url": "https://www.moreyoga.co.uk/",
        "booking": "https://clients.mindbodyonline.com/classic/home?studioid=256292",
        "postcode": "W"
      },
      "MoreYoga Lewisham":
      {
        "name": "More Yoga Lewisham",
        "url": "https://www.moreyoga.co.uk/",
        "booking": "https://clients.mindbodyonline.com/classic/home?studioid=256292",
        "postcode": "SE"
      },
      "MoreYoga Old Street":
      {
        "name": "More Yoga Old Street",
        "url": "https://www.moreyoga.co.uk/",
        "booking": "https://clients.mindbodyonline.com/classic/home?studioid=256292",
        "postcode": "EC"
      },
      "MoreYoga Soho":
      {
        "name": "More Yoga Soho",
        "url": "https://www.moreyoga.co.uk/",
        "booking": "https://clients.mindbodyonline.com/classic/home?studioid=256292",
        "postcode": "W"
      },
      "MoreYoga Stamford Brook":
      {
        "name": "More Yoga Stamford Brook",
        "url": "https://www.moreyoga.co.uk/",
        "booking": "https://clients.mindbodyonline.com/classic/home?studioid=256292",
        "postcode": "W"
      },
      "MoreYoga Stoke Newington":
      {
        "name": "More Yoga Stoke Newington",
        "url": "https://www.moreyoga.co.uk/",
        "booking": "https://clients.mindbodyonline.com/classic/home?studioid=256292",
        "postcode": "N"
      },
      "MoreYoga Stratford International":
      {
        "name": "More Yoga Stratford International",
        "url": "https://www.moreyoga.co.uk/",
        "booking": "https://clients.mindbodyonline.com/classic/home?studioid=256292",
        "postcode": "E"
      },
      "MoreYoga Surrey Quays":
      {
        "name": "More Yoga Surrey Quays",
        "url": "https://www.moreyoga.co.uk/",
        "booking": "https://clients.mindbodyonline.com/classic/home?studioid=256292",
        "postcode": "SE"
      },
      "MoreYoga Tower Bridge":
      {
        "name": "More Yoga Tower Bridge",
        "url": "https://www.moreyoga.co.uk/",
        "booking": "https://clients.mindbodyonline.com/classic/home?studioid=256292",
        "postcode": "SE"
      },
      "MoreYoga Tulse Hill":
      {
        "name": "More Yoga Tulse Hill",
        "url": "https://www.moreyoga.co.uk/",
        "booking": "https://clients.mindbodyonline.com/classic/home?studioid=256292",
        "postcode": "SE"
      },
      "MoreYoga Woolwich":
      {
        "name": "More Yoga Woolwich",
        "url": "https://www.moreyoga.co.uk/",
        "booking": "https://clients.mindbodyonline.com/classic/home?studioid=256292",
        "postcode": "SE"
      },
      "MoreYoga Victoria":
      {
        "name": "More Yoga Victoria",
        "url": "https://www.moreyoga.co.uk/",
        "booking": "https://clients.mindbodyonline.com/classic/home?studioid=256292",
        "postcode": "SW"
      }
    }
  },
  {
    "name": "Triyoga",
    "provider": "MBO",
    "studioid": 1991,
    "redirectPage":  "",
    "timezone": "Europe/London",
    "locales": 
    {
      "Soho":
      {
        "name": "Triyoga Soho",
        "url": "http://www.triyoga.co.uk/",
        "booking": "https://clients.mindbodyonline.com/classic/home?studioid=1991",
        "postcode": "W"
      },
      "Camden":
      {
        "name": "Triyoga Camden",
        "url": "http://www.triyoga.co.uk/",
        "booking": "https://clients.mindbodyonline.com/classic/home?studioid=1991",
        "postcode": "NW"
      },
      "Chelsea":
      {
        "name": "Triyoga Chelsea",
        "url": "http://www.triyoga.co.uk/",
        "booking": "https://clients.mindbodyonline.com/classic/home?studioid=1991",
        "postcode": "SW"
      },
      "Ealing":
      {
        "name": "Triyoga Ealing",
        "url": "http://www.triyoga.co.uk/",
        "booking": "https://clients.mindbodyonline.com/classic/home?studioid=1991",
        "postcode": "W"
      },
      "Shoreditch":
      {
        "name": "Triyoga Shoreditch",
        "url": "http://www.triyoga.co.uk/",
        "booking": "https://clients.mindbodyonline.com/classic/home?studioid=1991",
        "postcode": "E"
      }
    }
  }
]
